STARLINK-1513           
1 45786U 20038BJ  26068.62517786  .00011742  00000+0  40750-3 0  9990
2 45786  53.1601 191.4505 0000951 101.2977 258.8131 15.30234927316830
XCUBE-1                 
1 62400U 24247Z   26068.48297321  .00009773  00000+0  36224-3 0  9994
2 62400  44.9938 117.7807 0005235 331.1499  28.9094 15.27910558 67702
